NORAD_CAT_ID,OBJECT_NAME,OBJECT_TYPE,EPOCH,MEAN_MOTION,ECCENTRICITY,INCLINATION,RA_OF_ASC_NODE,ARG_OF_PERICENTER,MEAN_ANOMALY,BSTAR,MEAN_MOTION_DOT,MEAN_MOTION_DDOT,TLE_LINE0,TLE_LINE1,TLE_LINE2,SEMIMAJOR_AXIS,PERIOD,APOGEE,PERIGEE,DECAYED
51802.0,STARLINK-3557,PAYLOAD,2022-06-19 14:00:01,15.08856697,0.0001607,53.2201,330.3863,53.5956,260.9308,-0.00090029,-0.00014594,0.0,0 STARLINK-3557,1 51802U 22017AL  22170.58334491 -.00014594  00000-0 -90029-3 0  9995,2 51802  53.2201 330.3863 0001607  53.5956 260.9308 15.08856697  1301,6917.829000000002,95.436,540.806,538.5830000000002,0.0
51802.0,STARLINK-3557,PAYLOAD,2022-06-19 22:00:00,15.08846557,0.0001737,53.2197,328.8912,47.8537,278.2846,0.00096747,0.00015146,0.0,0 STARLINK-3557,1 51802U 22017AL  22170.91667824  .00015146  00000-0  96747-3 0  9996,2 51802  53.2197 328.8912 0001737  47.8537 278.2846 15.08846557  1300,6917.86,95.437,540.927,538.524,0.0
51802.0,STARLINK-3557,PAYLOAD,2022-06-20 10:00:00,15.088346599999998,0.0001455,53.2202,326.6449,54.6151,108.9287,0.0019059,0.0003017,0.0,0 STARLINK-3557,1 51802U 22017AL  22171.41667824  .00030170  00000-0  19059-2 0  9996,2 51802  53.2202 326.6449 0001455  54.6151 108.9287 15.08834660 18862,6917.897,95.438,540.768,538.755,0.0
51802.0,STARLINK-3557,PAYLOAD,2022-06-20 14:00:01,15.08861226,0.000152,53.2201,325.8977,50.7434,298.5945,-0.001219,-0.00019647,0.0,0 STARLINK-3557,1 51802U 22017AL  22171.58334491 -.00019647  00000-0 -12190-2 0  9992,2 51802  53.2201 325.8977 0001520  50.7434 298.5945 15.08861226  1308,6917.816,95.436,540.732,538.629,0.0
51802.0,STARLINK-3557,PAYLOAD,2022-06-20 22:00:00,15.08849711,0.0001658,53.2196,324.4023,45.2595,315.6951,-0.00021741,-3.747e-05,0.0,0 STARLINK-3557,1 51802U 22017AL  22171.91667824 -.00003747  00000-0 -21741-3 0  9995,2 51802  53.2196 324.4023 0001658  45.2595 315.6951 15.08849711  1311,6917.851,95.437,540.863,538.569,0.0
51802.0,STARLINK-3557,PAYLOAD,2022-06-21 06:00:00,15.08817802,0.0001501999999999,53.2196,322.9043,54.0621,318.5063,0.0032998,0.00052588,0.0,0 STARLINK-3557,1 51802U 22017AL  22172.25001157  .00052588  00000-0  32998-2 0  9994,2 51802  53.2196 322.9043 0001502  54.0621 318.5063 15.08817802 18996,6917.948,95.439,540.852,538.774,0.0
51802.0,STARLINK-3557,PAYLOAD,2022-06-21 14:00:01,15.08874444,0.0001555,53.2197,321.4091,52.0832,332.0642,-0.0031226999999999,-0.0004969,0.0,0 STARLINK-3557,1 51802U 22017AL  22172.58334491 -.00049690  00000-0 -31227-2 0  9996,2 51802  53.2197 321.4091 0001555  52.0832 332.0642 15.08874444  1300,6917.775,95.435,540.716,538.564,0.0
51802.0,STARLINK-3557,PAYLOAD,2022-06-21 20:00:01,15.08824507,0.000165,53.2194,320.2878,47.2342,255.6339,0.0012578,0.00019778,0.0,0 STARLINK-3557,1 51802U 22017AL  22172.83334491  .00019778  00000-0  12578-2 0  9994,2 51802  53.2194 320.2878 0001650  47.2342 255.6339 15.08824507 19076,6917.928000000001,95.439,540.934,538.651,0.0
51802.0,STARLINK-3557,PAYLOAD,2022-06-21 22:00:00,15.08823972,0.0001608,53.219,319.9134,45.3943,350.3711,0.0014030999999999,0.00022103,0.0,0 STARLINK-3557,1 51802U 22017AL  22172.91667824  .00022103  00000-0  14031-2 0  9994,2 51802  53.2190 319.9134 0001608  45.3943 350.3711 15.08823972  1300,6917.929,95.439,540.9069999999998,538.682,0.0
51802.0,STARLINK-3557,PAYLOAD,2022-06-22 14:00:01,15.08830537,0.0001602,53.2191,316.9204,53.6081,5.31,-0.0014535,-0.0002334,0.0,0 STARLINK-3557,1 51802U 22017AL  22173.58334491 -.00023340  00000-0 -14535-2 0  9994,2 51802  53.2191 316.9204 0001602  53.6081   5.3100 15.08830537 19195,6917.909000000002,95.438,540.883,538.6659999999998,0.0
51802.0,STARLINK-3557,PAYLOAD,2022-06-22 22:00:00,15.08819911,0.0001665,53.2185,315.4246,47.8765,22.6187,0.0016544,0.00026125,0.0,0 STARLINK-3557,1 51802U 22017AL  22173.91667824  .00026125  00000-0  16544-2 0  9994,2 51802  53.2185 315.4246 0001665  47.8765  22.6187 15.08819911  1305,6917.941999999999,95.439,540.9590000000002,538.655,0.0
51802.0,STARLINK-3557,PAYLOAD,2022-06-23 04:00:01,15.08802916,0.0001602,53.218,314.2943,55.4527,293.8007,0.0031031,0.00049394,0.0,0 STARLINK-3557,1 51802U 22017AL  22174.16668981  .00049394  00000-0  31031-2 0  9998,2 51802  53.2180 314.2943 0001602  55.4527 293.8007 15.08802916 19278,6917.994000000002,95.44,540.967,538.75,0.0
51802.0,STARLINK-3557,PAYLOAD,2022-06-23 14:00:01,15.08853457,0.0001633,53.2185,312.4315,53.7591,39.9005,-0.0013507,-0.00021728,0.0,0 STARLINK-3557,1 51802U 22017AL  22174.58334491 -.00021728  00000-0 -13507-2 0  9991,2 51802  53.2185 312.4315 0001633  53.7591  39.9005 15.08853457  1300,6917.839,95.437,540.8340000000002,538.575,0.0
51802.0,STARLINK-3557,PAYLOAD,2022-06-23 22:00:00,15.0885543,0.0001726,53.2181,310.9355,48.6343,56.627,-0.00032275,-5.423e-05,0.0,0 STARLINK-3557,1 51802U 22017AL  22174.91667824 -.00005423  00000-0 -32275-3 0  9995,2 51802  53.2181 310.9355 0001726  48.6343  56.6270 15.08855430 19395,6917.833000000001,95.437,540.8919999999998,538.504,0.0
51802.0,STARLINK-3557,PAYLOAD,2022-06-24 14:00:01,15.08844755,0.0001771,53.2184,307.9423,55.2873,73.1684,-0.0012574,-0.00020247,0.0,0 STARLINK-3557,1 51802U 22017AL  22175.58334491 -.00020247  00000-0 -12574-2 0  9990,2 51802  53.2184 307.9423 0001771  55.2873  73.1684 15.08844755  1305,6917.866,95.437,540.956,538.506,0.0
51802.0,STARLINK-3557,PAYLOAD,2022-06-24 22:00:01,15.08847859,0.0001778,53.2182,306.4461,49.6584,90.4472,-0.0024949,-0.00039784,0.0,0 STARLINK-3557,1 51802U 22017AL  22175.91668981 -.00039784  00000-0 -24949-2 0  9996,2 51802  53.2182 306.4461 0001778  49.6584  90.4472 15.08847859 19542,6917.856,95.437,540.951,538.491,0.0
51802.0,STARLINK-3557,PAYLOAD,2022-06-25 12:00:00,15.08840316,0.0001701,53.2188,303.827,54.2771,16.024,-0.0015345,-0.00024627,0.0,0 STARLINK-3557,1 51802U 22017AL  22176.50001157 -.00024627  00000-0 -15345-2 0  9998,2 51802  53.2188 303.8270 0001701  54.2771  16.0240 15.08840316 19631,6917.879,95.438,540.9209999999998,538.568,0.0
51802.0,STARLINK-3557,PAYLOAD,2022-06-25 14:00:01,15.08833119,0.0001753,53.2187,303.4533,52.1212,111.0788,-0.0010071,-0.00016277,0.0,0 STARLINK-3557,1 51802U 22017AL  22176.58334491 -.00016277  00000-0 -10071-2 0  9999,2 51802  53.2187 303.4533 0001753  52.1212 111.0788 15.08833119  1303,6917.901,95.438,540.979,538.554,0.0
51802.0,STARLINK-3557,PAYLOAD,2022-06-25 22:00:00,15.08843087,0.0001791,53.2187,301.9571,48.2552,126.5283,0.00012274,1.666e-05,0.0,0 STARLINK-3557,1 51802U 22017AL  22176.91667824  .00001666  00000-0  12274-3 0  9997,2 51802  53.2187 301.9571 0001791  48.2552 126.5283 15.08843087  1309,6917.871,95.437,540.975,538.497,0.0
51802.0,STARLINK-3557,PAYLOAD,2022-06-26 06:00:00,15.08828145,0.0001648,53.219,300.4591,54.4507,131.9372,0.0029626,0.00047162,0.0,0 STARLINK-3557,1 51802U 22017AL  22177.25001157  .00047162  00000-0  29626-2 0  9995,2 51802  53.2190 300.4591 0001648  54.4507 131.9372 15.08828145 19743,6917.917,95.438,540.922,538.6419999999998,0.0
51802.0,STARLINK-3557,PAYLOAD,2022-06-26 12:00:00,15.08863541,0.0001827,53.2193,299.338,54.6953,50.39,-0.0032463,-0.00051617,0.0,0 STARLINK-3557,1 51802U 22017AL  22177.50001157 -.00051617  00000-0 -32463-2 0  9998,2 51802  53.2193 299.3380 0001827  54.6953  50.3900 15.08863541 19788,6917.808000000001,95.436,540.937,538.41,0.0
51802.0,STARLINK-3557,PAYLOAD,2022-06-26 14:00:01,15.08841599,0.00019,53.2192,298.9643,52.8847,145.1715,-0.0012024,-0.00019374,0.0,0 STARLINK-3557,1 51802U 22017AL  22177.58335648 -.00019374  00000-0 -12024-2 0  9996,2 51802  53.2192 298.9643 0001900  52.8847 145.1715 15.08841599  1303,6917.876,95.437,541.055,538.4259999999998,0.0
51802.0,STARLINK-3557,PAYLOAD,2022-06-26 20:00:01,15.08822178,0.0001939,53.2192,297.8426,50.0103,66.6778,0.0026154,0.00041562,0.0,0 STARLINK-3557,1 51802U 22017AL  22177.83334491  .00041562  00000-0  26154-2 0  9990,2 51802  53.2192 297.8426 0001939  50.0103  66.6778 15.08822178 19832,6917.935,95.439,541.141,538.4580000000002,0.0
51802.0,STARLINK-3557,PAYLOAD,2022-06-26 22:00:00,15.08848672,0.0001911,53.2192,297.468,51.3126,158.2654,-0.00045909,-7.589e-05,0.0,0 STARLINK-3557,1 51802U 22017AL  22177.91667824 -.00007589  00000-0 -45909-3 0  9991,2 51802  53.2192 297.4680 0001911  51.3126 158.2654 15.08848672  1300,6917.854,95.437,541.0409999999998,538.3969999999998,0.0
51802.0,STARLINK-3557,PAYLOAD,2022-06-27 12:00:00,15.08859483,0.0001797,53.2198,294.8492,54.3018,85.5703,-0.0037596,-0.00059659,0.0,0 STARLINK-3557,1 51802U 22017AL  22178.50001157 -.00059659  00000-0 -37596-2 0  9995,2 51802  53.2198 294.8492 0001797  54.3018  85.5703 15.08859483 19930,6917.821,95.436,540.929,538.443,0.0
51802.0,STARLINK-3557,PAYLOAD,2022-06-27 14:00:01,15.08835886,0.0001842,53.2197,294.4756,51.8959,180.8827,-0.0016035999999999,-0.00025716,0.0,0 STARLINK-3557,1 51802U 22017AL  22178.58334491 -.00025716  00000-0 -16036-2 0  9996,2 51802  53.2197 294.4756 0001842  51.8959 180.8827 15.08835886  1304,6917.893,95.438,541.0319999999998,538.484,0.0
51802.0,STARLINK-3557,PAYLOAD,2022-06-27 20:00:01,15.08820049,0.0001842,53.2195,293.3537,48.2681,103.264,0.0018277,0.00028904,0.0,0 STARLINK-3557,1 51802U 22017AL  22178.83335648  .00028904  00000-0  18277-2 0  9998,2 51802  53.2195 293.3537 0001842  48.2681 103.2640 15.08820049 19989,6917.941,95.439,541.081,538.5319999999998,0.0
51802.0,STARLINK-3557,PAYLOAD,2022-06-27 22:00:00,15.08844841,0.0001793,53.2195,292.9792,49.8499,194.5078,-0.0012357,-0.00019903,0.0,0 STARLINK-3557,1 51802U 22017AL  22178.91667824 -.00019903  00000-0 -12357-2 0  9995,2 51802  53.2195 292.9792 0001793  49.8499 194.5078 15.08844841  1307,6917.866,95.437,540.971,538.49,0.0
51802.0,STARLINK-3557,PAYLOAD,2022-06-28 14:00:01,15.08839012,0.0001799,53.2198,289.9872,52.045,215.4883,-0.00062169,-0.00010168,0.0,0 STARLINK-3557,1 51802U 22017AL  22179.58334491 -.00010168  00000-0 -62169-3 0  9991,2 51802  53.2198 289.9872 0001799  52.0450 215.4883 15.08839012 20092,6917.8830000000025,95.438,540.993,538.504,0.0
